{"type":"FeatureCollection","features":[{"type":"Feature","properties":{"name":"Tom's Run Shelter","osm_type":"node","osm_id":259032841,"amenity":"shelter","tags":{"amenity":"shelter","name":"Tom's Run Shelter"}},"geometry":{"type":"Point","coordinates":[-77.3566789,40.0341226]}},{"type":"Feature","properties":{"name":"Quarry Gap Shelter","osm_type":"node","osm_id":259033545,"amenity":"shelter","tags":{"amenity":"shelter","name":"Quarry Gap Shelter"}},"geometry":{"type":"Point","coordinates":[-77.4864295,39.9319888]}},{"type":"Feature","properties":{"name":"Rocky Mountain Shelter 2","osm_type":"node","osm_id":259033914,"amenity":"shelter","capacity":"4","operator":"Potomac Appalachian Trail Club","tags":{"amenity":"shelter","attribution":"Appalachian Trail Club","capacity":"4","description":"Same trail leading from AT to Rocky Mtn Shelters continues 0.26 to PA 233, then","fee":"no","name":"Rocky Mountain Shelter 2","operator":"Potomac Appalachian Trail Club","source":"GPS"}},"geometry":{"type":"Point","coordinates":[-77.5006388,39.868687]}},{"type":"Feature","properties":{"name":"Deer Lick Shelter","osm_type":"node","osm_id":259034086,"amenity":"shelter","capacity":"0","operator":"Potomac Appalachian Trail Club","tags":{"amenity":"shelter","attribution":"Appalachian Trail Club","capacity":"0","description":"AT passes Deer Lick Shelters and spring on the E; a second spring is 0.25 mi on","fee":"no","name":"Deer Lick Shelter","operator":"Potomac Appalachian Trail Club","source":"GPS"}},"geometry":{"type":"Point","coordinates":[-77.4848754,39.7661504]}},{"type":"Feature","properties":{"name":"Eagles Nest Shelter","osm_type":"node","osm_id":259044216,"amenity":"shelter","tags":{"amenity":"shelter","name":"Eagles Nest Shelter"}},"geometry":{"type":"Point","coordinates":[-76.1523187,40.5493069]}},{"type":"Feature","properties":{"name":"Hexacuba Shelter","osm_type":"node","osm_id":419229340,"amenity":"shelter","capacity":"0","operator":"Dartmouth Outing Club","tags":{"amenity":"shelter","attribution":"Appalachian Trail Club","capacity":"0","fee":"no","name":"Hexacuba Shelter","operator":"Dartmouth Outing Club","source":"Approximate Location"}},"geometry":{"type":"Point","coordinates":[-72.0266688,43.8761478]}},{"type":"Feature","properties":{"name":"Wilbur Clearing Lean-to","osm_type":"node","osm_id":419229370,"amenity":"shelter","capacity":"0","operator":"AMC - Berkshire Chapter","tags":{"amenity":"shelter","attribution":"Appalachian Trail Club","capacity":"0","fee":"no","name":"Wilbur Clearing Lean-to","operator":"AMC - Berkshire Chapter","source":"MA-CT Trail Map"}},"geometry":{"type":"Point","coordinates":[-73.1697654,42.66841]}},{"type":"Feature","properties":{"name":"Glen Brook Lean-to","osm_type":"node","osm_id":419229381,"amenity":"shelter","capacity":"0","operator":"AMC - Berkshire Chapter","tags":{"amenity":"shelter","attribution":"Appalachian Trail Club","capacity":"0","fee":"no","name":"Glen Brook Lean-to","operator":"AMC - Berkshire Chapter","source":"Approximate Location"}},"geometry":{"type":"Point","coordinates":[-73.428315,42.1112097]}},{"type":"Feature","properties":{"name":"The Hemlocks Lean-to","osm_type":"node","osm_id":419229392,"amenity":"shelter","capacity":"10","operator":"AMC - Berkshire Chapter","tags":{"amenity":"shelter","attribution":"Appalachian Trail Club","capacity":"10","fee":"no","name":"The Hemlocks Lean-to","operator":"AMC - Berkshire Chapter","source":"Approximate Location"}},"geometry":{"type":"Point","coordinates":[-73.429226,42.109687]}},{"type":"Feature","properties":{"name":"Saver Hollow Shelter","osm_type":"node","osm_id":419229397,"amenity":"shelter","capacity":"8","operator":"Roanoke Appalachian Trail Club","tags":{"amenity":"shelter","attribution":"Appalachian Trail Club","capacity":"8","fee":"no","name":"Saver Hollow Shelter","operator":"Roanoke Appalachian Trail Club","source":"Approximate Location"}},"geometry":{"type":"Point","coordinates":[-80.337353,37.3547568]}},{"type":"Feature","properties":{"name":"Rock Spring Hut","osm_type":"node","osm_id":419229412,"amenity":"shelter","capacity":"0","operator":"Potomac Appalachian Trail Club","tags":{"amenity":"shelter","attribution":"Appalachian Trail Club","capacity":"0","fee":"no","name":"Rock Spring Hut","operator":"Potomac Appalachian Trail Club","source":"Based on USGS DRG"}},"geometry":{"type":"Point","coordinates":[-78.4082915,38.5530591]}},{"type":"Feature","properties":{"name":"Velvet Rocks Shelter","osm_type":"node","osm_id":419229419,"amenity":"shelter","shelter_type":"lean_to","capacity":"4","operator":"Dartmouth Outing Club","tags":{"amenity":"shelter","attribution":"Appalachian Mountain Club","capacity":"4","fee":"no","name":"Velvet Rocks Shelter","operator":"Dartmouth Outing Club","shelter_type":"lean_to","source":"GPS"}},"geometry":{"type":"Point","coordinates":[-72.2646607,43.7023701]}},{"type":"Feature","properties":{"name":"Rutherford Shelter","osm_type":"node","osm_id":419229422,"amenity":"shelter","capacity":"6","operator":"New York-New Jersey Trail Conference","tags":{"amenity":"shelter","attribution":"Appalachian Trail Club","capacity":"6","fee":"no","name":"Rutherford Shelter","operator":"New York-New Jersey Trail Conference","source":"Based on USGS DRG"}},"geometry":{"type":"Point","coordinates":[-74.678165,41.277515]}},{"type":"Feature","properties":{"name":"Rattle River Shelter","osm_type":"node","osm_id":419229429,"amenity":"shelter","capacity":"0","operator":"Appalachian Mountain Club","tags":{"amenity":"shelter","attribution":"Appalachian Mountain Club","capacity":"0","fee":"no","name":"Rattle River Shelter","operator":"Appalachian Mountain Club","source":"GPS"}},"geometry":{"type":"Point","coordinates":[-71.1074461,44.3798252]}},{"type":"Feature","properties":{"name":"Trapper John Shelter","osm_type":"node","osm_id":419229440,"amenity":"shelter","shelter_type":"lean_to","capacity":"0","operator":"Dartmouth Outing Club","tags":{"amenity":"shelter","attribution":"Appalachian Mountain Club","bin":"no","capacity":"0","description":"lean-to (3 walls) in the forest. Space for a couple of people. Barbecue possible.","fee":"no","name":"Trapper John Shelter","operator":"Dartmouth Outing Club","shelter_type":"lean_to","source":"GPS"}},"geometry":{"type":"Point","coordinates":[-72.1114327,43.7830929]}},{"type":"Feature","properties":{"name":"Full Goose Shelter","osm_type":"node","osm_id":419229443,"amenity":"shelter","capacity":"0","operator":"Appalachian Mountain Club","tags":{"amenity":"shelter","attribution":"Appalachian Mountain Club","capacity":"0","fee":"no","name":"Full Goose Shelter","operator":"Appalachian Mountain Club","source":"GPS"}},"geometry":{"type":"Point","coordinates":[-70.9806791,44.5252951]}},{"type":"Feature","properties":{"name":"Gentian Pond Campsite Shelter","osm_type":"node","osm_id":419229447,"amenity":"shelter","capacity":"14","operator":"Appalachian Mountain Club","tags":{"amenity":"shelter","attribution":"Appalachian Mountain Club","capacity":"14","description":"Shelter at Gentian Pond Campsite","fee":"yes","name":"Gentian Pond Campsite Shelter","operator":"Appalachian Mountain Club","source":"GPS"}},"geometry":{"type":"Point","coordinates":[-71.0693452,44.4518627]}},{"type":"Feature","properties":{"name":"Imp Campsite Shelter","osm_type":"node","osm_id":419229451,"amenity":"shelter","capacity":"10","operator":"Appalachian Mountain Club","tags":{"amenity":"shelter","attribution":"Appalachian Mountain Club","capacity":"10","description":"Shelter at Imp Campsite","fee":"yes","name":"Imp Campsite Shelter","operator":"Appalachian Mountain Club","source":"GPS"}},"geometry":{"type":"Point","coordinates":[-71.1500503,44.3287906]}},{"type":"Feature","properties":{"name":"Speck Pond Shelter","osm_type":"node","osm_id":419229454,"amenity":"shelter","capacity":"0","operator":"Appalachian Mountain Club","tags":{"amenity":"shelter","attribution":"Appalachian Mountain Club","capacity":"0","description":"Shelter at Speck Pond Campsite","fee":"yes","name":"Speck Pond Shelter","operator":"Appalachian Mountain Club","source":"GPS"}},"geometry":{"type":"Point","coordinates":[-70.9735912,44.5646764]}},{"type":"Feature","properties":{"name":"Beaver Brook Shelter","osm_type":"node","osm_id":419229458,"amenity":"shelter","capacity":"0","operator":"Appalachian Mountain Club","tags":{"amenity":"shelter","attribution":"Appalachian Mountain Club","capacity":"0","fee":"no","name":"Beaver Brook Shelter","operator":"Appalachian Mountain Club","source":"GPS"}},"geometry":{"type":"Point","coordinates":[-71.811277,44.0328553]}},{"type":"Feature","properties":{"name":"Jeffers Brook Shelter","osm_type":"node","osm_id":419229461,"amenity":"shelter","capacity":"10","operator":"Appalachian Mountain Club","tags":{"amenity":"shelter","attribution":"Appalachian Mountain Club","capacity":"10","fee":"no","name":"Jeffers Brook Shelter","operator":"Appalachian Mountain Club","source":"GPS"}},"geometry":{"type":"Point","coordinates":[-71.8889117,43.9964487]}},{"type":"Feature","properties":{"name":"Eliza Brook Campsite Shelter","osm_type":"node","osm_id":419229465,"amenity":"shelter","capacity":"0","operator":"Appalachian Mountain Club","tags":{"amenity":"shelter","attribution":"Appalachian Mountain Club","capacity":"0","fee":"no","name":"Eliza Brook Campsite Shelter","operator":"Appalachian Mountain Club","source":"GPS"}},"geometry":{"type":"Point","coordinates":[-71.742188,44.1008088]}},{"type":"Feature","properties":{"name":"Ethan Pond Campsite Shelter","osm_type":"node","osm_id":419229469,"amenity":"shelter","capacity":"0","operator":"Appalachian Mountain Club","tags":{"amenity":"shelter","attribution":"Appalachian Mountain Club","capacity":"0","description":"Shelter at Ethan Pond Campsite","fee":"yes","name":"Ethan Pond Campsite Shelter","operator":"Appalachian Mountain Club","source":"GPS"}},"geometry":{"type":"Point","coordinates":[-71.4268034,44.177153]}},{"type":"Feature","properties":{"name":"Piazza Rock Lean-to","osm_type":"node","osm_id":419229473,"amenity":"shelter","capacity":"0","operator":"Maine Appalachian Trail Club","tags":{"amenity":"shelter","attribution":"Appalachian Mountain Club","capacity":"0","fee":"no","name":"Piazza Rock Lean-to","operator":"Maine Appalachian Trail Club","source":"GPS"}},"geometry":{"type":"Point","coordinates":[-70.5299578,44.904172]}},{"type":"Feature","properties":{"name":"Garfield Ridge Campsite Shelter","osm_type":"node","osm_id":419229481,"amenity":"shelter","shelter_type":"basic_hut","capacity":"0","operator":"Appalachian Mountain Club","tags":{"amenity":"shelter","attribution":"Appalachian Mountain Club","bench":"yes","bin":"no","capacity":"0","description":"Shelter at Garfield Ridge Campsite","fee":"yes","name":"Garfield Ridge Campsite Shelter","operator":"Appalachian Mountain Club","shelter_type":"basic_hut","source":"GPS"}},"geometry":{"type":"Point","coordinates":[-71.6083137,44.1907563]}},{"type":"Feature","properties":{"name":"Little Bigelow Lean-to","osm_type":"node","osm_id":419229488,"amenity":"shelter","shelter_type":"lean_to","capacity":"1","operator":"Maine Appalachian Trail Club","tags":{"amenity":"shelter","attribution":"Appalachian Mountain Club","backcountry":"yes","capacity":"1","dog":"leashed","fee":"no","name":"Little Bigelow Lean-to","operator":"Maine Appalachian Trail Club","shelter":"yes","shelter_type":"lean_to","source":"GPS"}},"geometry":{"type":"Point","coordinates":[-70.1910668,45.1389955]}},{"type":"Feature","properties":{"name":"Poplar Ridge Lean-to","osm_type":"node","osm_id":419229491,"amenity":"shelter","shelter_type":"lean_to","capacity":"6","operator":"Maine Appalachian Trail Club","tags":{"amenity":"shelter","attribution":"Appalachian Mountain Club","capacity":"6","fee":"no","name":"Poplar Ridge Lean-to","operator":"Maine Appalachian Trail Club","shelter_type":"lean_to","source":"GPS"}},"geometry":{"type":"Point","coordinates":[-70.4457707,44.9699118]}},{"type":"Feature","properties":{"name":"Carter Notch Hut","osm_type":"node","osm_id":419229509,"tourism":"alpine_hut","capacity":"30","operator":"Appalachian Mountain Club","tags":{"attribution":"Appalachian Mountain Club","capacity":"30","ele":"1002","fee":"yes","name":"Carter Notch Hut","operator":"Appalachian Mountain Club","reservation":"recommended","source":"GPS","tourism":"alpine_hut"}},"geometry":{"type":"Point","coordinates":[-71.1954009,44.2592864]}},{"type":"Feature","properties":{"name":"Hurd Brook Lean-to","osm_type":"node","osm_id":419229515,"amenity":"shelter","shelter_type":"lean_to","capacity":"0","operator":"Maine Appalachian Trail Club","tags":{"amenity":"shelter","attribution":"Appalachian Mountain Club","capacity":"0","description":"Water","fee":"no","name":"Hurd Brook Lean-to","operator":"Maine Appalachian Trail Club","shelter_type":"lean_to","source":"GPS"}},"geometry":{"type":"Point","coordinates":[-69.0188439,45.8186742]}},{"type":"Feature","properties":{"name":"Governor Clement Shelter","osm_type":"node","osm_id":419229527,"amenity":"shelter","capacity":"0","operator":"Green Mountain Club","tags":{"addr:city":"Shrewsbury","addr:housenumber":"1951","addr:postcode":"05738","addr:state":"VT","addr:street":"Clement Shelter Road","amenity":"shelter","attribution":"Green Mountain National Forest","capacity":"0","fee":"no","name":"Governor Clement Shelter","name:etymology:wikidata":"Q473186","operator":"Green Mountain Club","ref:vcgi:esiteid":"1050982","source":"GPS;esri/Vermont_US_Addresses"}},"geometry":{"type":"Point","coordinates":[-72.8483448,43.5645636]}},{"type":"Feature","properties":{"name":"Stony Brook Shelter","osm_type":"node","osm_id":419229531,"amenity":"shelter","capacity":"8","operator":"Green Mountain Club","tags":{"amenity":"shelter","attribution":"Green Mountain National Forest","capacity":"8","fee":"no","name":"Stony Brook Shelter","operator":"Green Mountain Club","source":"GPS"}},"geometry":{"type":"Point","coordinates":[-72.7301035,43.6916885]}},{"type":"Feature","properties":{"name":"Wintturi Shelter","osm_type":"node","osm_id":419229535,"amenity":"shelter","capacity":"0","operator":"Green Mountain Club","tags":{"amenity":"shelter","attribution":"Green Mountain National Forest","capacity":"0","fee":"no","name":"Wintturi Shelter","operator":"Green Mountain Club","source":"GPS"}},"geometry":{"type":"Point","coordinates":[-72.6220836,43.6620786]}},{"type":"Feature","properties":{"name":"Minerva Hinchey Shelter","osm_type":"node","osm_id":419229557,"amenity":"shelter","capacity":"10","operator":"Green Mountain Club","tags":{"amenity":"shelter","attribution":"Green Mountain National Forest","capacity":"10","fee":"no","name":"Minerva Hinchey Shelter","operator":"Green Mountain Club","source":"GPS"}},"geometry":{"type":"Point","coordinates":[-72.9245154,43.4876924]}},{"type":"Feature","properties":{"name":"Baldpate Lean-to","osm_type":"node","osm_id":419229574,"amenity":"shelter","capacity":"8","operator":"Maine Appalachian Trail Club","tags":{"amenity":"shelter","attribution":"Appalachian Trail Club","capacity":"8","description":"Baldpate Lean-to is near small stream at base of steep slope; water from nearby","fee":"no","name":"Baldpate Lean-to","operator":"Maine Appalachian Trail Club","source":"GPS"}},"geometry":{"type":"Point","coordinates":[-70.9116587,44.5984653]}},{"type":"Feature","properties":{"name":"Happy Hill Shelter","osm_type":"node","osm_id":419229581,"amenity":"shelter","capacity":"0","operator":"Dartmouth Outing Club","tags":{"amenity":"shelter","attribution":"Green Mountain National Forest","capacity":"0","description":"Also called Happy Hill Cabin","fee":"no","name":"Happy Hill Shelter","operator":"Dartmouth Outing Club","source":"GPS"}},"geometry":{"type":"Point","coordinates":[-72.3652705,43.7240706]}},{"type":"Feature","properties":{"name":"Thistle Hill Shelter","osm_type":"node","osm_id":419229582,"amenity":"shelter","capacity":"0","operator":"Dartmouth Outing Club","tags":{"amenity":"shelter","attribution":"Green Mountain National Forest","capacity":"0","description":"Formally Cloudland Shelter (1995) according to A.T. map","fee":"no","name":"Thistle Hill Shelter","operator":"Dartmouth Outing Club","source":"GPS"}},"geometry":{"type":"Point","coordinates":[-72.4753047,43.6950672]}},{"type":"Feature","properties":{"name":"Tucker Johnson Shelter","osm_type":"node","osm_id":419229583,"amenity":"shelter","capacity":"8","operator":"Green Mountain Club","tags":{"amenity":"shelter","attribution":"Green Mountain National Forest","capacity":"8","fee":"no","name":"Tucker Johnson Shelter","operator":"Green Mountain Club","source":"GPS"}},"geometry":{"type":"Point","coordinates":[-72.8430571,43.6792243]}},{"type":"Feature","properties":{"name":"Logan Brook Lean-to","osm_type":"node","osm_id":419229585,"amenity":"shelter","shelter_type":"lean_to","capacity":"6","operator":"Maine Appalachian Trail Club","tags":{"amenity":"shelter","attribution":"Appalachian Trail Club","capacity":"6","description":"AT reaches shelter located in a ravine between two shoulders of White Cap Mounta","fee":"no","name":"Logan Brook Lean-to","operator":"Maine Appalachian Trail Club","shelter_type":"lean_to","source":"GPS"}},"geometry":{"type":"Point","coordinates":[-69.2348337,45.560837]}},{"type":"Feature","properties":{"name":"Chairback Gap Lean-to","osm_type":"node","osm_id":419229610,"amenity":"shelter","shelter_type":"lean_to","capacity":"6","operator":"Maine Appalachian Trail Club","tags":{"amenity":"shelter","attribution":"Appalachian Trail Club","capacity":"6","description":"AT reaches Chairback Gap; spring on short side trail; Chairback Gap Lean-to is 1","fee":"no","name":"Chairback Gap Lean-to","operator":"Maine Appalachian Trail Club","shelter_type":"lean_to","source":"GPS"}},"geometry":{"type":"Point","coordinates":[-69.2623006,45.4531531]}},{"type":"Feature","properties":{"name":"Leeman Brook Lean-to","osm_type":"node","osm_id":419229614,"amenity":"shelter","shelter_type":"lean_to","capacity":"6","operator":"Maine Appalachian Trail Club","tags":{"amenity":"shelter","attribution":"Appalachian Trail Club","capacity":"6","description":"Water from brook--gm3","fee":"no","name":"Leeman Brook Lean-to","operator":"Maine Appalachian Trail Club","shelter_type":"lean_to","source":"GPS"}},"geometry":{"type":"Point","coordinates":[-69.4986439,45.3516252]}},{"type":"Feature","properties":{"name":"Carl A. Newhall Lean-to","osm_type":"node","osm_id":419229619,"amenity":"shelter","shelter_type":"lean_to","capacity":"6","operator":"Maine Appalachian Trail Club","tags":{"amenity":"shelter","attribution":"Appalachian Trail Club","bench":"yes","capacity":"6","description":"Water from Gulf Hagas Brook--gm2","fee":"no","name":"Carl A. Newhall Lean-to","operator":"Maine Appalachian Trail Club","shelter_type":"lean_to","source":"GPS","toilets":"yes"}},"geometry":{"type":"Point","coordinates":[-69.3150459,45.531064]}},{"type":"Feature","properties":{"name":"Potaywadjo Spring Lean-to","osm_type":"node","osm_id":419229622,"amenity":"shelter","shelter_type":"lean_to","capacity":"8","operator":"Maine Appalachian Trail Club","tags":{"amenity":"shelter","attribution":"Appalachian Trail Club","capacity":"8","description":"Water from nearby bubbling spring 15 ft in diameter--gm2","fee":"no","name":"Potaywadjo Spring Lean-to","operator":"Maine Appalachian Trail Club","shelter_type":"lean_to","source":"GPS"}},"geometry":{"type":"Point","coordinates":[-69.0072919,45.7064479]}},{"type":"Feature","properties":{"name":"Rainbow Stream Lean-to","osm_type":"node","osm_id":419229626,"amenity":"shelter","shelter_type":"lean_to","capacity":"6","operator":"Maine Appalachian Trail Club","tags":{"amenity":"shelter","attribution":"Appalachian Trail Club","capacity":"6","fee":"no","name":"Rainbow Stream Lean-to","operator":"Maine Appalachian Trail Club","shelter_type":"lean_to","source":"GPS"}},"geometry":{"type":"Point","coordinates":[-69.17087,45.7989588]}},{"type":"Feature","properties":{"name":"Cooper Brook Falls Lean-to","osm_type":"node","osm_id":419229630,"amenity":"shelter","shelter_type":"lean_to","capacity":"6","operator":"Maine Appalachian Trail Club","tags":{"amenity":"shelter","attribution":"Appalachian Trail Club","capacity":"6","fee":"no","firepit":"yes","name":"Cooper Brook Falls Lean-to","operator":"Maine Appalachian Trail Club","shelter_type":"lean_to","source":"GPS","toilets":"yes"}},"geometry":{"type":"Point","coordinates":[-69.0873765,45.6404021]}},{"type":"Feature","properties":{"name":"West Carry Pond Lean-to","osm_type":"node","osm_id":419229637,"amenity":"shelter","capacity":"8","operator":"Maine Appalachian Trail Club","tags":{"amenity":"shelter","attribution":"Appalachian Trail Club","capacity":"8","description":"AT reaches West Carry Pond Lean-to and tent sites; water from pond; swimming in","fee":"no","name":"West Carry Pond Lean-to","operator":"Maine Appalachian Trail Club","source":"GPS"}},"geometry":{"type":"Point","coordinates":[-70.099793,45.1580475]}},{"type":"Feature","properties":{"name":"Pierce Pond Lean-to","osm_type":"node","osm_id":419229640,"amenity":"shelter","capacity":"6","operator":"Maine Appalachian Trail Club","tags":{"amenity":"shelter","attribution":"Appalachian Trail Club","capacity":"6","description":"Pierce Pond Lean-to is on an arm of Pierce Pond--gm5","fee":"no","name":"Pierce Pond Lean-to","operator":"Maine Appalachian Trail Club","source":"GPS"}},"geometry":{"type":"Point","coordinates":[-70.0554637,45.2402119]}},{"type":"Feature","properties":{"name":"Bemis Mountain Lean-to","osm_type":"node","osm_id":419229644,"amenity":"shelter","capacity":"8","operator":"Maine Appalachian Trail Club","tags":{"amenity":"shelter","attribution":"Appalachian Trail Club","capacity":"8","description":"AT reaches Bemis Mountain Lean-to; water from small stream--gm7","fee":"no","name":"Bemis Mountain Lean-to","operator":"Maine Appalachian Trail Club","source":"GPS"}},"geometry":{"type":"Point","coordinates":[-70.7559071,44.810181]}},{"type":"Feature","properties":{"name":"Bald Mountain Brook Lean-to","osm_type":"node","osm_id":419229651,"amenity":"shelter","capacity":"8","operator":"Maine Appalachian Trail Club","tags":{"amenity":"shelter","attribution":"Appalachian Trail Club","capacity":"8","description":"Water from nearby brook; tent sites at site of old logging camp near brook--gm 4","fee":"no","name":"Bald Mountain Brook Lean-to","operator":"Maine Appalachian Trail Club","source":"GPS"}},"geometry":{"type":"Point","coordinates":[-69.7993408,45.2584153]}},{"type":"Feature","properties":{"name":"Wilson Valley Lean-to","osm_type":"node","osm_id":419229655,"amenity":"shelter","shelter_type":"lean_to","capacity":"6","operator":"Maine Appalachian Trail Club","tags":{"amenity":"shelter","attribution":"Appalachian Trail Club","capacity":"6","description":"AT reaches short side trail to Wilson Valley Lean-to; water from small spring--g","fee":"no","name":"Wilson Valley Lean-to","operator":"Maine Appalachian Trail Club","shelter_type":"lean_to","source":"GPS"}},"geometry":{"type":"Point","coordinates":[-69.4595003,45.3978342]}},{"type":"Feature","properties":{"name":"Horseshoe Canyon Lean-to","osm_type":"node","osm_id":419229658,"amenity":"shelter","capacity":"8","operator":"Maine Appalachian Trail Club","tags":{"amenity":"shelter","attribution":"Appalachian Trail Club","capacity":"8","description":"Water from stream; slate canyon along AT--gm4","fee":"no","name":"Horseshoe Canyon Lean-to","operator":"Maine Appalachian Trail Club","source":"GPS"}},"geometry":{"type":"Point","coordinates":[-69.6275215,45.2826654]}},{"type":"Feature","properties":{"name":"Moxie Bald Lean-to","osm_type":"node","osm_id":419229662,"amenity":"shelter","capacity":"6","operator":"Maine Appalachian Trail Club","tags":{"amenity":"shelter","attribution":"Appalachian Trail Club","capacity":"6","description":"Water from pond; swimming in pond--gm4","fee":"no","name":"Moxie Bald Lean-to","operator":"Maine Appalachian Trail Club","source":"GPS"}},"geometry":{"type":"Point","coordinates":[-69.745181,45.2704677]}},{"type":"Feature","properties":{"name":"Wadleigh Stream Lean-to","osm_type":"node","osm_id":419229670,"amenity":"shelter","shelter_type":"lean_to","capacity":"6","operator":"Maine Appalachian Trail Club","tags":{"amenity":"shelter","attribution":"Appalachian Trail Club","capacity":"6","description":"AT reaches Wadleigh Stream Lean-to; water from stream--gm1","fee":"no","name":"Wadleigh Stream Lean-to","operator":"Maine Appalachian Trail Club","shelter_type":"lean_to","source":"GPS"}},"geometry":{"type":"Point","coordinates":[-69.1446592,45.747145]}},{"type":"Feature","properties":{"name":"Pleasant Pond Lean-to","osm_type":"node","osm_id":419229674,"amenity":"shelter","capacity":"6","operator":"Maine Appalachian Trail Club","tags":{"amenity":"shelter","attribution":"Appalachian Trail Club","capacity":"6","description":"Trail continues past lean-to to pond beach. This is the last water source (brook","fee":"no","name":"Pleasant Pond Lean-to","operator":"Maine Appalachian Trail Club","source":"GPS"}},"geometry":{"type":"Point","coordinates":[-69.9161983,45.270474]}},{"type":"Feature","properties":{"name":"Mark Noepel Lean-to","osm_type":"node","osm_id":419229690,"amenity":"shelter","capacity":"16","operator":"AMC - Berkshire Chapter","tags":{"amenity":"shelter","attribution":"Appalachian Trail Club","capacity":"16","description":"Two tent platforms, fire pit, privy, and an intermittent spring are nearby--gb,","fee":"no","name":"Mark Noepel Lean-to","operator":"AMC - Berkshire Chapter","source":"GPS"}},"geometry":{"type":"Point","coordinates":[-73.1841937,42.6086379]}},{"type":"Feature","properties":{"name":"Kay Wood Lean-to","osm_type":"node","osm_id":419229698,"amenity":"shelter","capacity":"12","operator":"AMC - Berkshire Chapter","tags":{"amenity":"shelter","attribution":"Appalachian Trail Club","capacity":"12","description":"Water source is intermittent brook within sight down a steep bank; a privy is ne","fee":"no","name":"Kay Wood Lean-to","operator":"AMC - Berkshire Chapter","source":"GPS"}},"geometry":{"type":"Point","coordinates":[-73.161532,42.4521547]}},{"type":"Feature","properties":{"name":"Greenwall Shelter","osm_type":"node","osm_id":419229702,"amenity":"shelter","capacity":"8","operator":"Green Mountain Club","tags":{"amenity":"shelter","attribution":"Appalachian Trail Club","capacity":"8","description":"CK RELO MENTIONED IN GB OVER BEAR MTN, AT MILE 7.0--GB, 187","fee":"no","name":"Greenwall Shelter","operator":"Green Mountain Club","source":"GPS"}},"geometry":{"type":"Point","coordinates":[-72.9294278,43.4405623]}},{"type":"Feature","properties":{"name":"Mt. Wilcox South Lean-to","osm_type":"node","osm_id":419229706,"amenity":"shelter","capacity":"10","operator":"AMC - Berkshire Chapter","tags":{"amenity":"shelter","attribution":"Appalachian Trail Club","capacity":"10","description":"Spring is on side of access trail, 200 ft from AT; another spring 100 yds S on A","fee":"no","name":"Mt. Wilcox South Lean-to","operator":"AMC - Berkshire Chapter","source":"GPS"}},"geometry":{"type":"Point","coordinates":[-73.2680743,42.2077307]}},{"type":"Feature","properties":{"name":"Big Branch Shelter","osm_type":"node","osm_id":419229719,"amenity":"shelter","capacity":"8","operator":"Green Mountain Club","tags":{"amenity":"shelter","attribution":"Appalachian Trail Club","capacity":"8","description":"AT reaches Big Branch Shelter; water available from stream--gb, 196","fee":"no","name":"Big Branch Shelter","operator":"Green Mountain Club","source":"GPS"}},"geometry":{"type":"Point","coordinates":[-72.9459718,43.3640395]}},{"type":"Feature","properties":{"name":"Peru Peak Shelter","osm_type":"node","osm_id":419229722,"amenity":"shelter","capacity":"10","operator":"Green Mountain Club","tags":{"amenity":"shelter","attribution":"Appalachian Trail Club","capacity":"10","description":"AT reaches Peru Peak Shelter; water available from adjacent brook--gb, 195; a fe","fee":"yes","name":"Peru Peak Shelter","operator":"Green Mountain Club","source":"GPS"}},"geometry":{"type":"Point","coordinates":[-72.9523975,43.3012225]}},{"type":"Feature","properties":{"name":"Goddard Shelter","osm_type":"node","osm_id":419229735,"amenity":"shelter","capacity":"12","operator":"Green Mountain Club","tags":{"amenity":"shelter","attribution":"Appalachian Trail Club","capacity":"12","description":"AT reaches Goddard Shelter, with spring 40 ft from shelter on AT--gb, 210","fee":"no","name":"Goddard Shelter","operator":"Green Mountain Club","source":"GPS"}},"geometry":{"type":"Point","coordinates":[-73.0722474,42.9741481]}},{"type":"Feature","properties":{"name":"Congdon Shelter","osm_type":"node","osm_id":419229743,"amenity":"shelter","shelter_type":"lean_to","capacity":"8","operator":"Green Mountain Club","tags":{"amenity":"shelter","attribution":"Appalachian Trail Club","capacity":"8","description":"AT reaches Congdon Shelter, with water available from nearby brook--gb, 218","fee":"no","name":"Congdon Shelter","operator":"Green Mountain Club","shelter_type":"lean_to","source":"GPS"}},"geometry":{"type":"Point","coordinates":[-73.109901,42.8479562]}},{"type":"Feature","properties":{"name":"William Brien Memorial Shelter","osm_type":"node","osm_id":419229751,"amenity":"shelter","shelter_type":"lean_to","capacity":"8","operator":"New York-New Jersey Trail Conference","tags":{"amenity":"shelter","attribution":"Appalachian Trail Club","capacity":"8","description":"At the intersection of Appalachian (white), Ramapo-Dunderberg (red) and Menomine (yellow) trails; Spring 300 feet from shelter 172° true, 185° magnetic (41.2789, -74.0591); Well fed but may fail during dry times.","fee":"no","name":"William Brien Memorial Shelter","operator":"New York-New Jersey Trail Conference","shelter_type":"lean_to","source":"GPS"}},"geometry":{"type":"Point","coordinates":[-74.0592402,41.279747]}},{"type":"Feature","properties":{"name":"Morgan Stewart Memorial Shelter","osm_type":"node","osm_id":419229755,"amenity":"shelter","shelter_type":"lean_to","capacity":"6","operator":"New York-New Jersey Trail Conference","tags":{"amenity":"shelter","bench":"no","bin":"no","capacity":"6","fee":"no","name":"Morgan Stewart Memorial Shelter","operator":"New York-New Jersey Trail Conference","shelter_type":"lean_to"}},"geometry":{"type":"Point","coordinates":[-73.69173,41.5645743]}},{"type":"Feature","properties":{"name":"Wiley Shelter","osm_type":"node","osm_id":419229760,"amenity":"shelter","capacity":"6","operator":"New York-New Jersey Trail Conference","tags":{"amenity":"shelter","attribution":"Appalachian Trail Club","capacity":"6","description":"At passes in front of Wiley Shelter; water available from pump on AT 0.1 mi N of","fee":"no","name":"Wiley Shelter","operator":"New York-New Jersey Trail Conference","source":"GPS"}},"geometry":{"type":"Point","coordinates":[-73.5323979,41.6378588]}},{"type":"Feature","properties":{"name":"Tom Leonard Lean-to","osm_type":"node","osm_id":419229762,"amenity":"shelter","capacity":"16","operator":"AMC - Berkshire Chapter","tags":{"amenity":"shelter","attribution":"Appalachian Trail Club","capacity":"16","description":"Tent platforms, privy; spring is on blue-blazed trail below tent platforms--gb,","fee":"no","name":"Tom Leonard Lean-to","operator":"AMC - Berkshire Chapter","source":"GPS"}},"geometry":{"type":"Point","coordinates":[-73.3057757,42.1647466]}},{"type":"Feature","properties":{"name":"Telephone Pioneers Shelter","osm_type":"node","osm_id":419229765,"amenity":"shelter","shelter_type":"lean_to","capacity":"6","operator":"New York-New Jersey Trail Conference","tags":{"amenity":"shelter","capacity":"6","description":"Water usually available from stream crossed by side trail to shelter--gb, 50","fee":"no","name":"Telephone Pioneers Shelter","operator":"New York-New Jersey Trail Conference","shelter_type":"lean_to"}},"geometry":{"type":"Point","coordinates":[-73.6188636,41.6038353]}},{"type":"Feature","properties":{"name":"Allentown Shelter","osm_type":"node","osm_id":419229776,"amenity":"shelter","capacity":"8","operator":"Allentown Hiking Club","tags":{"amenity":"shelter","attribution":"Appalachian Trail Club","capacity":"8","description":"shelter with fire ring, picnic table, privy, tent sites, seasonal water from nearby springs","fee":"no","name":"Allentown Shelter","operator":"Allentown Hiking Club"}},"geometry":{"type":"Point","coordinates":[-75.8739161,40.683087]}},{"type":"Feature","properties":{"name":"Birch Run Shelter","osm_type":"node","osm_id":419229780,"amenity":"shelter","capacity":"8","operator":"Potomac Appalachian Trail Club","tags":{"amenity":"shelter","attribution":"Appalachian Trail Club","capacity":"8","description":"AT passes twin Birch Run shelters on E side of footpath; spring is on W side of","fee":"no","name":"Birch Run Shelter","operator":"Potomac Appalachian Trail Club","source":"GPS"}},"geometry":{"type":"Point","coordinates":[-77.4193787,39.9851195]}},{"type":"Feature","properties":{"name":"James Fry Shelter","osm_type":"node","osm_id":419229788,"amenity":"shelter","capacity":"0","operator":"Mountain Club of Maryland","tags":{"amenity":"shelter","attribution":"Appalachian Trail Club","capacity":"0","description":"Spring is 100 ft beyond shelter--gb, 180","fee":"no","name":"James Fry Shelter","operator":"Mountain Club of Maryland","source":"GPS"}},"geometry":{"type":"Point","coordinates":[-77.2061745,40.0629782]}},{"type":"Feature","properties":{"name":"Alec Kennedy Shelter","osm_type":"node","osm_id":419229800,"amenity":"shelter","capacity":"0","operator":"Mountain Club of Maryland","tags":{"amenity":"shelter","attribution":"Appalachian Trail Club","capacity":"0","description":"Spring on side trail behind shelter may be dry; water from stream 0.5 mi S on AT","fee":"no","name":"Alec Kennedy Shelter","operator":"Mountain Club of Maryland","source":"GPS"}},"geometry":{"type":"Point","coordinates":[-77.1039154,40.1118792]}},{"type":"Feature","properties":{"name":"Fingerboard Shelter","osm_type":"node","osm_id":419229804,"amenity":"shelter","shelter_type":"lean_to","capacity":"8","operator":"New York-New Jersey Trail Conference","tags":{"amenity":"shelter","attribution":"Appalachian Trail Club","capacity":"8","description":"No water; water from Lake Tiorati 0.5 mi east, or faucet (summer only) at Tiorat","fee":"no","name":"Fingerboard Shelter","operator":"New York-New Jersey Trail Conference","shelter_type":"lean_to","source":"GPS"}},"geometry":{"type":"Point","coordinates":[-74.1040026,41.2633193]}},{"type":"Feature","properties":{"name":"RPH Shelter","osm_type":"node","osm_id":419229808,"amenity":"shelter","capacity":"6","operator":"New York-New Jersey Trail Conference","tags":{"amenity":"shelter","attribution":"Appalachian Trail Club","capacity":"6","description":"Side tr leads E to shelter; water and privy available; located at AT crossing of","fee":"no","name":"RPH Shelter","operator":"New York-New Jersey Trail Conference","source":"GPS"}},"geometry":{"type":"Point","coordinates":[-73.7924058,41.5144443]}},{"type":"Feature","properties":{"name":"Mashipacong Shelter","osm_type":"node","osm_id":419229812,"amenity":"shelter","shelter_type":"lean_to","capacity":"8","operator":"New York-New Jersey Trail Conference","tags":{"amenity":"shelter","attribution":"Appalachian Trail Club","capacity":"8","description":"shelter with picnic table, fire ring, privy, bear box, and many tent sites, no natural water but a frequent water drop location during AT hiking seasons","fee":"no","name":"Mashipacong Shelter","operator":"New York-New Jersey Trail Conference","shelter_type":"lean_to","toilets":"yes","toilets:disposal":"composting"}},"geometry":{"type":"Point","coordinates":[-74.6864221,41.25218]}},{"type":"Feature","properties":{"name":"Brink Shelter","osm_type":"node","osm_id":419229816,"amenity":"shelter","capacity":"5","operator":"New York-New Jersey Trail Conference","tags":{"amenity":"shelter","attribution":"Appalachian Trail Club","capacity":"5","description":"Spring is 350 ft behind shelter; a blue blazed trail leads to privy on opposite","fee":"no","name":"Brink Shelter","operator":"New York-New Jersey Trail Conference","source":"GPS"}},"geometry":{"type":"Point","coordinates":[-74.8383939,41.1531501]}},{"type":"Feature","properties":{"name":"Wawayanda Shelter","osm_type":"node","osm_id":419229820,"amenity":"shelter","shelter_type":"lean_to","capacity":"6","operator":"New York-New Jersey Trail Conference","tags":{"amenity":"shelter","attribution":"Appalachian Trail Club","capacity":"6","description":"For water go 0.1 mi north on AT, then 0.3 mi E on blue-blazed tr to Wawayanda St","fee":"no","name":"Wawayanda Shelter","operator":"New York-New Jersey Trail Conference","shelter_type":"lean_to","source":"GPS"}},"geometry":{"type":"Point","coordinates":[-74.3981308,41.2018416]}},{"type":"Feature","properties":{"name":"Gren Anderson Shelter","osm_type":"node","osm_id":419229823,"amenity":"shelter","capacity":"8","operator":"New York-New Jersey Trail Conference","tags":{"amenity":"shelter","attribution":"Appalachian Trail Club","capacity":"8","description":"Spring is 200 ft beyond shelter--gb, 162","fee":"no","name":"Gren Anderson Shelter","operator":"New York-New Jersey Trail Conference","source":"GPS"}},"geometry":{"type":"Point","coordinates":[-74.7526563,41.1993287]}},{"type":"Feature","properties":{"name":"Bake Oven Knob Shelter","osm_type":"node","osm_id":419229827,"amenity":"shelter","capacity":"6","operator":"Blue Mountain Eagle Climbing Club","tags":{"amenity":"shelter","attribution":"Appalachian Trail Club","capacity":"6","description":"small old shelter with fire ring and nearby camping, no privy, seasonal water from nearby springs","fee":"no","name":"Bake Oven Knob Shelter","operator":"Blue Mountain Eagle Climbing Club","toilets":"no"}},"geometry":{"type":"Point","coordinates":[-75.7270543,40.7541676]}},{"type":"Feature","properties":{"name":"Wildcat Shelter","osm_type":"node","osm_id":419229831,"amenity":"shelter","capacity":"8","operator":"New York-New Jersey Trail Conference","tags":{"amenity":"shelter","attribution":"Appalachian Trail Club","capacity":"8","description":"Spring, privy, bear box","fee":"no","name":"Wildcat Shelter","operator":"New York-New Jersey Trail Conference","source":"GPS"}},"geometry":{"type":"Point","coordinates":[-74.2678425,41.2682831]}},{"type":"Feature","properties":{"name":"Tumbling Run Shelters","osm_type":"node","osm_id":419229835,"amenity":"shelter","operator":"Potomac Appalachian Trail Club","tags":{"amenity":"shelter","attribution":"Appalachian Trail Club","description":"Tumbling Run Shelters are 30 yds to W of AT--gb, 205","fee":"no","name":"Tumbling Run Shelters","operator":"Potomac Appalachian Trail Club","source":"GPS"}},"geometry":{"type":"Point","coordinates":[-77.4779216,39.8049651]}},{"type":"Feature","properties":{"name":"Rocky Mountain Shelter 1","osm_type":"node","osm_id":419229851,"amenity":"shelter","capacity":"4","operator":"Potomac Appalachian Trail Club","tags":{"amenity":"shelter","attribution":"Appalachian Trail Club","capacity":"4","description":"Same trail leading from AT to Rocky Mtn Shelters continues 0.26 to PA 233, then","fee":"no","name":"Rocky Mountain Shelter 1","operator":"Potomac Appalachian Trail Club","source":"GPS"}},"geometry":{"type":"Point","coordinates":[-77.5006485,39.8686166]}},{"type":"Feature","properties":{"name":"Quarry Gap Shelters","osm_type":"node","osm_id":419229852,"amenity":"shelter","capacity":"0","operator":"Potomac Appalachian Trail Club","tags":{"amenity":"shelter","attribution":"Appalachian Trail Club","capacity":"0","description":"AT arrives at twin Quarry Gap Shelters; spring is located 10 yds north of shelte","fee":"no","name":"Quarry Gap Shelters","operator":"Potomac Appalachian Trail Club","source":"GPS"}},"geometry":{"type":"Point","coordinates":[-77.4864018,39.931916]}},{"type":"Feature","properties":{"name":"Cove Mountain Shelter","osm_type":"node","osm_id":419229854,"amenity":"shelter","capacity":"0","operator":"Mountain Club of Maryland","tags":{"amenity":"shelter","attribution":"Appalachian Trail Club","capacity":"0","description":"Intermittent spring is 400 ft down mountain from shelter on blue-blazed trail--g","fee":"no","name":"Cove Mountain Shelter","operator":"Mountain Club of Maryland","source":"GPS"}},"geometry":{"type":"Point","coordinates":[-77.0673792,40.3636583]}},{"type":"Feature","properties":{"name":"Rausch Gap Shelter","osm_type":"node","osm_id":419229866,"amenity":"shelter","capacity":"10","operator":"Brandywine Valley Outing Club","tags":{"amenity":"shelter","attribution":"Appalachian Trail Club","capacity":"10","description":"On state game lands, is for use of through hikers only; has reliable spring and","fee":"no","name":"Rausch Gap Shelter","operator":"Brandywine Valley Outing Club","source":"GPS","toilets":"yes"}},"geometry":{"type":"Point","coordinates":[-76.6002427,40.4986596]}},{"type":"Feature","properties":{"name":"501 Shelter","osm_type":"node","osm_id":419229871,"amenity":"shelter","capacity":"12","operator":"Blue Mountain Eagle Climbing Club","tags":{"amenity":"shelter","attribution":"Appalachian Trail Club","capacity":"12","description":"Fully enclosed, water, port-a-potty (in season); there is a caretaker year round","fee":"no","name":"501 Shelter","operator":"Blue Mountain Eagle Climbing Club"}},"geometry":{"type":"Point","coordinates":[-76.3464033,40.5131916]}},{"type":"Feature","properties":{"name":"William Penn Shelter","osm_type":"node","osm_id":419229875,"amenity":"shelter","capacity":"20","operator":"Blue Mountain Eagle Climbing Club","tags":{"amenity":"shelter","attribution":"Appalachian Trail Club","capacity":"20","description":"A two-story structure w/ two sleeping levels; the second level is a loft w/ wind","fee":"no","name":"William Penn Shelter","operator":"Blue Mountain Eagle Climbing Club","source":"GPS"}},"geometry":{"type":"Point","coordinates":[-76.4142499,40.4957254]}},{"type":"Feature","properties":{"name":"Eagles Nest Shelter","osm_type":"node","osm_id":419229880,"amenity":"shelter","capacity":"0","operator":"Blue Mountain Eagle Climbing Club","tags":{"amenity":"shelter","attribution":"Appalachian Trail Club","capacity":"0","description":"Yeich Spring is nearby-gb, 102; water source is creek that is crossed on the way","fee":"no","name":"Eagles Nest Shelter","operator":"Blue Mountain Eagle Climbing Club","source":"GPS"}},"geometry":{"type":"Point","coordinates":[-76.1523091,40.5492429]}},{"type":"Feature","properties":{"name":"Mt. Algo Lean-to","osm_type":"node","osm_id":419229884,"amenity":"shelter","capacity":"6","operator":"AMC - Connecticut Chapter","tags":{"amenity":"shelter","attribution":"Appalachian Trail Club","capacity":"6","description":"Water is available near shelter--gb, 151; privy nearby; camping near shelter; no","fee":"no","name":"Mt. Algo Lean-to","operator":"AMC - Connecticut Chapter","source":"GPS"}},"geometry":{"type":"Point","coordinates":[-73.4962907,41.731856]}},{"type":"Feature","properties":{"name":"High Point Shelter","osm_type":"node","osm_id":419229914,"amenity":"shelter","shelter_type":"lean_to","capacity":"8","operator":"New York-New Jersey Trail Conference","tags":{"amenity":"shelter","attribution":"Appalachian Trail Club","capacity":"8","description":"shelter with nearby privy, tent sites, and water from steeam, campfires prohibited","fee":"no","name":"High Point Shelter","operator":"New York-New Jersey Trail Conference","shelter_type":"lean_to"}},"geometry":{"type":"Point","coordinates":[-74.6572957,41.3157448]}},{"type":"Feature","properties":{"name":"Eckville Shelter","osm_type":"node","osm_id":419229919,"amenity":"shelter","capacity":"6","operator":"Blue Mountain Eagle Climbing Club","tags":{"amenity":"shelter","attribution":"Appalachian Trail Club","capacity":"6","description":"Shelter is 0.2 miles by following blue blazes along road to shelter--gb, 91","designation":"Appalachian Trail Shelter","fee":"no","name":"Eckville Shelter","operator":"Blue Mountain Eagle Climbing Club","source":"GPS"}},"geometry":{"type":"Point","coordinates":[-75.958269,40.6336284]}},{"type":"Feature","properties":{"name":"Stewart Hollow Brook Lean-to","osm_type":"node","osm_id":419229923,"amenity":"shelter","shelter_type":"lean_to","capacity":"6","operator":"AMC - Connecticut Chapter","tags":{"amenity":"shelter","attribution":"Appalachian Trail Club","capacity":"6","description":"Privy nearby, campsites, no fires permitted; water located on AT S of shelter--g","fee":"no","name":"Stewart Hollow Brook Lean-to","operator":"AMC - Connecticut Chapter","shelter_type":"lean_to","source":"GPS"}},"geometry":{"type":"Point","coordinates":[-73.4185583,41.779304]}},{"type":"Feature","properties":{"name":"War Spur Shelter","osm_type":"node","osm_id":419229929,"amenity":"shelter","shelter_type":"lean_to","capacity":"6","operator":"Roanoke Appalachian Trail Club","tags":{"amenity":"shelter","attribution":"Appalachian Trail Club","capacity":"6","description":"Shelter is 100 ft W of AT with water from stream--gb, 260","fee":"no","name":"War Spur Shelter","operator":"Roanoke Appalachian Trail Club","shelter_type":"lean_to","source":"GPS"}},"geometry":{"type":"Point","coordinates":[-80.4736752,37.3975758]}},{"type":"Feature","properties":{"name":"Mt. Wilcox North Lean-to","osm_type":"node","osm_id":419229932,"amenity":"shelter","capacity":"10","operator":"AMC - Berkshire Chapter","tags":{"amenity":"shelter","attribution":"Appalachian Trail Club","capacity":"10","description":"Poor swampy water supply in nearby brook, may go dry in summer. Privy nearby--gb","fee":"no","name":"Mt. Wilcox North Lean-to","operator":"AMC - Berkshire Chapter","source":"GPS"}},"geometry":{"type":"Point","coordinates":[-73.2500896,42.2209319]}},{"type":"Feature","properties":{"name":"Pochuck Mountain Shelter","osm_type":"node","osm_id":419229937,"amenity":"shelter","capacity":"6","operator":"New York-New Jersey Trail Conference","tags":{"amenity":"shelter","attribution":"Appalachian Trail Club","bench":"yes","bin":"no","capacity":"6","description":"Current: Bear box, picnic table and privy.\n-Water from spigot on side of house located 0.4miles trail south of shelter on spur trail marked by post.\n\n(Old, outdated?): Water from hand pump located 0.4 mile to the south on AT, at crossing of Wallkil","fee":"no","name":"Pochuck Mountain Shelter","operator":"New York-New Jersey Trail Conference"}},"geometry":{"type":"Point","coordinates":[-74.5153542,41.2712358]}},{"type":"Feature","properties":{"name":"Wesser Bald Shelter","osm_type":"node","osm_id":419229981,"amenity":"shelter","shelter_type":"lean_to","capacity":"6","operator":"Nantahala Hiking Club","tags":{"amenity":"shelter","attribution":"Appalachian Trail Club","capacity":"6","description":"Water is available from spring 0.1 mi S on the AT(near sharp turn) and then 125, spring head of Wesser Creek","fee":"no","name":"Wesser Bald Shelter","operator":"Nantahala Hiking Club","shelter_type":"lean_to","source":"GPS"}},"geometry":{"type":"Point","coordinates":[-83.582077,35.2824149]}},{"type":"Feature","properties":{"name":"A. Rufus Morgan Shelter","osm_type":"node","osm_id":419229985,"amenity":"shelter","shelter_type":"lean_to","capacity":"5","operator":"Nantahala Hiking Club","tags":{"amenity":"shelter","attribution":"Appalachian Trail Club","capacity":"5","description":"Shelter is 200 ft to E of AT; stream on W of AT--gb, 93","fee":"no","name":"A. Rufus Morgan Shelter","operator":"Nantahala Hiking Club","shelter_type":"lean_to","source":"GPS"}},"geometry":{"type":"Point","coordinates":[-83.590068,35.3242388]}},{"type":"Feature","properties":{"name":"Laurel Creek Shelter","osm_type":"node","osm_id":419230004,"amenity":"shelter","shelter_type":"lean_to","capacity":"6","operator":"Roanoke Appalachian Trail Club","tags":{"amenity":"shelter","attribution":"Appalachian Trail Club","capacity":"6","description":"Water is available 100 yds north on AT from Laurel Creek--gb, 253","fee":"no","name":"Laurel Creek Shelter","operator":"Roanoke Appalachian Trail Club","shelter_type":"lean_to","source":"GPS"}},"geometry":{"type":"Point","coordinates":[-80.4209561,37.3589241]}},{"type":"Feature","properties":{"name":"Bailey Gap Shelter","osm_type":"node","osm_id":419230008,"amenity":"shelter","shelter_type":"lean_to","capacity":"6","operator":"Roanoke Appalachian Trail Club","tags":{"amenity":"shelter","attribution":"Appalachian Trail Club","capacity":"6","description":"Seasonal spring, across trail from shelter, may be dry in summer--gb, 259","fee":"no","name":"Bailey Gap Shelter","operator":"Roanoke Appalachian Trail Club","shelter_type":"lean_to","source":"GPS"}},"geometry":{"type":"Point","coordinates":[-80.577011,37.4008725]}},{"type":"Feature","properties":{"name":"Rice Field Shelter","osm_type":"node","osm_id":419230012,"amenity":"shelter","shelter_type":"lean_to","capacity":"7","operator":"Outdoor Club of Virginia Tech","tags":{"amenity":"shelter","attribution":"Appalachian Trail Club","capacity":"7","description":"Alt. 3400'--db, 49; Water is a steep 0.5 mi downhill--Companion, 53","fee":"no","name":"Rice Field Shelter","operator":"Outdoor Club of Virginia Tech","shelter_type":"lean_to","source":"GPS"}},"geometry":{"type":"Point","coordinates":[-80.7583704,37.3747699]}},{"type":"Feature","properties":{"name":"Pine Swamp Branch Shelter","osm_type":"node","osm_id":419230015,"amenity":"shelter","shelter_type":"lean_to","capacity":"8","operator":"Outdoor Club of Virginia Tech","tags":{"amenity":"shelter","attribution":"Appalachian Trail Club","capacity":"8","description":"Water is available from Pine Swamp Branch 150 yds to W of AT--gb, 269","fee":"no","name":"Pine Swamp Branch Shelter","operator":"Outdoor Club of Virginia Tech","shelter_type":"lean_to","source":"GPS"}},"geometry":{"type":"Point","coordinates":[-80.6085297,37.4221]}},{"type":"Feature","properties":{"name":"Cold Spring Shelter","osm_type":"node","osm_id":419230020,"amenity":"shelter","shelter_type":"lean_to","capacity":"6","operator":"Nantahala Hiking Club","tags":{"amenity":"shelter","attribution":"Appalachian Trail Club","capacity":"6","description":"Shelter and spring are on AT; Campsites are on ridge above shelter--gb, 97","fee":"no","name":"Cold Spring Shelter","operator":"Nantahala Hiking Club","shelter_type":"lean_to","source":"GPS"}},"geometry":{"type":"Point","coordinates":[-83.5599832,35.2311322]}},{"type":"Feature","properties":{"name":"Fontana Dam Shelter","osm_type":"node","osm_id":419230022,"amenity":"shelter","shelter_type":"lean_to","capacity":"24","operator":"Smoky Mountain Hiking Club","tags":{"amenity":"shelter","attribution":"Appalachian Trail Club","capacity":"24","description":"AT passes picnic area and side trail leading E 300 ft to Fontana Dam Shelter--gb","fee":"no","name":"Fontana Dam Shelter","operator":"Smoky Mountain Hiking Club","shelter_type":"lean_to","source":"GPS"}},"geometry":{"type":"Point","coordinates":[-83.7939517,35.4485442]}},{"type":"Feature","properties":{"name":"Sassafras Gap Shelter","osm_type":"node","osm_id":419230025,"amenity":"shelter","shelter_type":"lean_to","capacity":"14","operator":"Smoky Mountain Hiking Club","tags":{"amenity":"shelter","attribution":"Appalachian Trail Club","capacity":"14","description":"A spring is located behind the shelter--gb, 89-90","fee":"no","name":"Sassafras Gap Shelter","operator":"Smoky Mountain Hiking Club","shelter_type":"lean_to","source":"GPS"}},"geometry":{"type":"Point","coordinates":[-83.6669881,35.3307908]}},{"type":"Feature","properties":{"name":"Little Laurel Shelter","osm_type":"node","osm_id":419230028,"amenity":"shelter","shelter_type":"lean_to","capacity":"5","operator":"Carolina Mountain Club","tags":{"amenity":"shelter","attribution":"Appalachian Trail Club","capacity":"5","description":"Blue blazed trail to W bears diagonally 100 yds to spring--gb, 164","fee":"no","name":"Little Laurel Shelter","operator":"Carolina Mountain Club","shelter_type":"lean_to","source":"GPS"}},"geometry":{"type":"Point","coordinates":[-82.7359647,36.0150949]}},{"type":"Feature","properties":{"name":"Flint Mountain Shelter","osm_type":"node","osm_id":419230036,"amenity":"shelter","shelter_type":"lean_to","capacity":"8","operator":"Carolina Mountain Club","tags":{"amenity":"shelter","attribution":"Appalachian Trail Club","capacity":"8","description":"Latrine is 75 feet from shelter--gb, 167; water is on AT, just N of shelter","fee":"no","name":"Flint Mountain Shelter","operator":"Carolina Mountain Club","shelter_type":"lean_to","source":"GPS"}},"geometry":{"type":"Point","coordinates":[-82.596626,36.0348882]}},{"type":"Feature","properties":{"name":"Jerry Cabin Shelter","osm_type":"node","osm_id":419230039,"amenity":"shelter","shelter_type":"lean_to","capacity":"6","operator":"Carolina Mountain Club","tags":{"amenity":"shelter","attribution":"Appalachian Trail Club","capacity":"6","description":"Shelter platform is very short.\nSide trail opposite shelter leads 100 yds to good spring--gb, 166","fee":"no","name":"Jerry Cabin Shelter","operator":"Carolina Mountain Club","shelter_type":"lean_to","source":"GPS"}},"geometry":{"type":"Point","coordinates":[-82.6571879,36.0565109]}},{"type":"Feature","properties":{"name":"Curley Maple Gap Shelter","osm_type":"node","osm_id":419230043,"amenity":"shelter","capacity":"6","operator":"Tennessee Eastman Hiking and Canoeing Club","tags":{"amenity":"shelter","attribution":"Appalachian Trail Club","capacity":"6","description":"Spring is 100 ft to right of shelter","fee":"no","name":"Curley Maple Gap Shelter","operator":"Tennessee Eastman Hiking and Canoeing Club","source":"GPS"}},"geometry":{"type":"Point","coordinates":[-82.3968108,36.1043382]}},{"type":"Feature","properties":{"name":"Cherry Gap Shelter","osm_type":"node","osm_id":419230048,"amenity":"shelter","capacity":"6","operator":"Tennessee Eastman Hiking and Canoeing Club","tags":{"amenity":"shelter","attribution":"Appalachian Trail Club","capacity":"6","description":"Spring is in hollow on blue blazed trail 250 ft W--gb, 130","fee":"no","name":"Cherry Gap Shelter","operator":"Tennessee Eastman Hiking and Canoeing Club","source":"GPS"}},"geometry":{"type":"Point","coordinates":[-82.2639765,36.1292781]}},{"type":"Feature","properties":{"name":"Bald Mountain Shelter","osm_type":"node","osm_id":419230052,"amenity":"shelter","capacity":"10","operator":"Carolina Mountain Club","tags":{"amenity":"shelter","attribution":"Appalachian Trail Club","capacity":"10","description":"Area around shelter is too fragile for camping; spring is 50' off side trail fro","fee":"no","name":"Bald Mountain Shelter","operator":"Carolina Mountain Club","source":"GPS"}},"geometry":{"type":"Point","coordinates":[-82.4781586,36.0001753]}},{"type":"Feature","properties":{"name":"No Business Knob Shelter","osm_type":"node","osm_id":419230057,"amenity":"shelter","capacity":"6","operator":"Tennessee Eastman Hiking and Canoeing Club","tags":{"amenity":"shelter","attribution":"Appalachian Trail Club","capacity":"6","description":"Alt. 3180'; No water at shelter; nearest water is 400 yds S on AT--gb, 137","fee":"no","name":"No Business Knob Shelter","operator":"Tennessee Eastman Hiking and Canoeing Club","source":"GPS"}},"geometry":{"type":"Point","coordinates":[-82.4336836,36.0666228]}},{"type":"Feature","properties":{"name":"Clyde Smith Shelter","osm_type":"node","osm_id":419230078,"amenity":"shelter","capacity":"6","operator":"Tennessee Eastman Hiking and Canoeing Club","tags":{"amenity":"shelter","attribution":"Appalachian Trail Club","capacity":"6","description":"Spring is 100 yds beyond shelter--gb, 118","fee":"no","name":"Clyde Smith Shelter","operator":"Tennessee Eastman Hiking and Canoeing Club","source":"GPS"}},"geometry":{"type":"Point","coordinates":[-82.1611563,36.1484857]}},{"type":"Feature","properties":{"name":"Roan High Knob Shelter","osm_type":"node","osm_id":419230086,"amenity":"shelter","capacity":"15","operator":"Tennessee Eastman Hiking and Canoeing Club","tags":{"amenity":"shelter","attribution":"Appalachian Trail Club","building":"yes","capacity":"15","description":"Alt. 6285'; Highest shelter on AT, originally a fire warden's cabin, spring w/in","fee":"no","name":"Roan High Knob Shelter","operator":"Tennessee Eastman Hiking and Canoeing Club","source":"GPS"}},"geometry":{"type":"Point","coordinates":[-82.1221352,36.1051294]}},{"type":"Feature","properties":{"name":"Old Orchard Shelter","osm_type":"node","osm_id":419230121,"amenity":"shelter","capacity":"6","operator":"Mt. Rogers Appalachian Trail Club","tags":{"amenity":"shelter","attribution":"Appalachian Trail Club","capacity":"6","description":"Spring is 100 yds to W of AT in woods--gb, 126","fee":"no","name":"Old Orchard Shelter","operator":"Mt. Rogers Appalachian Trail Club","source":"GPS"}},"geometry":{"type":"Point","coordinates":[-81.5110299,36.6832404]}},{"type":"Feature","properties":{"name":"Abingdon Gap Shelter","osm_type":"node","osm_id":419230128,"amenity":"shelter","capacity":"5","operator":"Tennessee Eastman Hiking and Canoeing Club","tags":{"amenity":"shelter","attribution":"Appalachian Trail Club","capacity":"5","description":"Spring located in hollow 275 yds behind shelter on blue blazed trail--gb, 50","fee":"no","name":"Abingdon Gap Shelter","operator":"Tennessee Eastman Hiking and Canoeing Club","source":"GPS"}},"geometry":{"type":"Point","coordinates":[-81.9020253,36.5810458]}},{"type":"Feature","properties":{"name":"Chatfield Shelter","osm_type":"node","osm_id":419230147,"amenity":"shelter","capacity":"6","operator":"Piedmont Appalachian Trail Hikers","tags":{"amenity":"shelter","attribution":"Appalachian Trail Club","capacity":"6","description":"Water available from stream in front of shelter--gb, 98","fee":"no","name":"Chatfield Shelter","operator":"Piedmont Appalachian Trail Hikers","source":"GPS"}},"geometry":{"type":"Point","coordinates":[-81.3630959,36.8499306]}},{"type":"Feature","properties":{"name":"Wise Shelter","osm_type":"node","osm_id":419230153,"amenity":"shelter","capacity":"6","operator":"Mt. Rogers Appalachian Trail Club","tags":{"amenity":"shelter","attribution":"Appalachian Trail Club","capacity":"6","description":"Water available from spring 100 yards south of shelter; privy nearby--gb, 125","fee":"no","name":"Wise Shelter","operator":"Mt. Rogers Appalachian Trail Club","source":"GPS"}},"geometry":{"type":"Point","coordinates":[-81.4983811,36.6539509]}},{"type":"Feature","properties":{"name":"Knot Maul Branch Shelter","osm_type":"node","osm_id":419230156,"amenity":"shelter","capacity":"8","operator":"Piedmont Appalachian Trail Hikers","tags":{"amenity":"shelter","attribution":"Appalachian Trail Club","capacity":"8","description":"Intermittent spring is 300 ft to left of shelter; water 0.2 mi N of shelter on A","fee":"no","name":"Knot Maul Branch Shelter","operator":"Piedmont Appalachian Trail Hikers","source":"GPS"}},"geometry":{"type":"Point","coordinates":[-81.4043839,37.0007616]}},{"type":"Feature","properties":{"name":"Raccoon Branch Shelter","osm_type":"node","osm_id":419230161,"amenity":"shelter","capacity":"8","operator":"Mt. Rogers Appalachian Trail Club","tags":{"amenity":"shelter","attribution":"Appalachian Trail Club","capacity":"8","description":"Water from nearby spring--gb, 105; Water is in front of the shelter--2000 Compan","fee":"no","name":"Raccoon Branch Shelter","operator":"Mt. Rogers Appalachian Trail Club","source":"GPS"}},"geometry":{"type":"Point","coordinates":[-81.4717835,36.7309468]}},{"type":"Feature","properties":{"name":"Trimpi Shelter","osm_type":"node","osm_id":419230167,"amenity":"shelter","capacity":"8","operator":"Mt. Rogers Appalachian Trail Club","tags":{"amenity":"shelter","attribution":"Appalachian Trail Club","capacity":"8","description":"Water from nearby spring--gb, 105; Water is in front of the shelter--2000 Compan","fee":"no","name":"Trimpi Shelter","operator":"Mt. Rogers Appalachian Trail Club","source":"GPS"}},"geometry":{"type":"Point","coordinates":[-81.4804077,36.7492066]}},{"type":"Feature","properties":{"name":"Partnership Shelter","osm_type":"node","osm_id":419230174,"amenity":"shelter","capacity":"16","operator":"Piedmont Appalachian Trail Hikers","tags":{"amenity":"shelter","attribution":"Appalachian Trail Club","capacity":"16","description":"Shelter has shower and laundry sink; privy nearby--gb, 15;","fee":"no","name":"Partnership Shelter","operator":"Piedmont Appalachian Trail Hikers","source":"GPS"}},"geometry":{"type":"Point","coordinates":[-81.4223828,36.809426]}},{"type":"Feature","properties":{"name":"Jenkins Shelter","osm_type":"node","osm_id":419230180,"amenity":"shelter","shelter_type":"lean_to","capacity":"8","operator":"Outdoor Club of Virginia Tech","tags":{"amenity":"shelter","attribution":"Appalachian Trail Club","capacity":"8","description":"Water is about 100 yds beyond shelter on blue-blazed trail--gb, 72","fee":"no","name":"Jenkins Shelter","operator":"Outdoor Club of Virginia Tech","shelter_type":"lean_to","source":"GPS"}},"geometry":{"type":"Point","coordinates":[-81.2475848,37.0934084]}},{"type":"Feature","properties":{"name":"Jenny Knob Shelter","osm_type":"node","osm_id":419230187,"amenity":"shelter","shelter_type":"lean_to","capacity":"6","operator":"Outdoor Club of Virginia Tech","tags":{"amenity":"shelter","attribution":"Appalachian Trail Club","capacity":"6","description":"Spring is beyond shelter on blue-blazed trail--gb, 64","fee":"no","name":"Jenny Knob Shelter","operator":"Outdoor Club of Virginia Tech","shelter_type":"lean_to","source":"GPS"}},"geometry":{"type":"Point","coordinates":[-80.980059,37.1550026]}},{"type":"Feature","properties":{"name":"Wapiti Shelter","osm_type":"node","osm_id":419230190,"amenity":"shelter","shelter_type":"lean_to","capacity":"8","operator":"Roanoke Appalachian Trail Club","tags":{"amenity":"shelter","attribution":"Appalachian Trail Club","bin":"no","capacity":"8","description":"Water from nearby Dismal Creek--gb, 45","fee":"no","name":"Wapiti Shelter","operator":"Roanoke Appalachian Trail Club","shelter_type":"lean_to","source":"GPS"}},"geometry":{"type":"Point","coordinates":[-80.8239184,37.2239605]}},{"type":"Feature","properties":{"name":"Doc's Knob Shelter","osm_type":"node","osm_id":419230194,"amenity":"shelter","shelter_type":"lean_to","capacity":"8","operator":"Roanoke Appalachian Trail Club","tags":{"amenity":"shelter","attribution":"Appalachian Trail Club","capacity":"8","description":"AT passes Doc's Knob Shelter, with nearby spring--gb, 47","fee":"no","name":"Doc's Knob Shelter","operator":"Roanoke Appalachian Trail Club","shelter_type":"lean_to","source":"GPS"}},"geometry":{"type":"Point","coordinates":[-80.8361979,37.2702226]}},{"type":"Feature","properties":{"name":"Groundhog Creek Shelter","osm_type":"node","osm_id":419230207,"amenity":"shelter","shelter_type":"lean_to","capacity":"6","operator":"Carolina Mountain Club","tags":{"amenity":"shelter","attribution":"Appalachian Trail Club","capacity":"6","description":"Water available at stream 100 yds from shelter--gb, 191","fee":"no","name":"Groundhog Creek Shelter","operator":"Carolina Mountain Club","shelter_type":"lean_to","source":"GPS"}},"geometry":{"type":"Point","coordinates":[-83.026229,35.7818311]}},{"type":"Feature","properties":{"name":"Roaring Fork Shelter","osm_type":"node","osm_id":419230215,"amenity":"shelter","shelter_type":"lean_to","capacity":"8","operator":"Carolina Mountain Club","tags":{"amenity":"shelter","attribution":"Appalachian Trail Club","capacity":"8","description":"Spring and outhouse are nearby--gb, 186","fee":"no","name":"Roaring Fork Shelter","operator":"Carolina Mountain Club","shelter_type":"lean_to","source":"GPS"}},"geometry":{"type":"Point","coordinates":[-82.9499168,35.804968]}},{"type":"Feature","properties":{"name":"Deer Park Mountain Shelter","osm_type":"node","osm_id":419230218,"amenity":"shelter","shelter_type":"lean_to","capacity":"5","operator":"Carolina Mountain Club","tags":{"amenity":"shelter","attribution":"Appalachian Trail Club","capacity":"5","description":"Halfway to shelter on side trail is spring;usually requires cleaning due to slow","fee":"no","name":"Deer Park Mountain Shelter","operator":"Carolina Mountain Club","shelter_type":"lean_to","source":"GPS"}},"geometry":{"type":"Point","coordinates":[-82.861288,35.8759904]}},{"type":"Feature","properties":{"name":"Moreland Gap Shelter","osm_type":"node","osm_id":419230226,"amenity":"shelter","capacity":"6","operator":"Tennessee Eastman Hiking and Canoeing Club","tags":{"amenity":"shelter","attribution":"Appalachian Trail Club","capacity":"6","description":"Alt. 3813'; spring is short distance down hollow opposite shelter--gb, 92","fee":"no","name":"Moreland Gap Shelter","operator":"Tennessee Eastman Hiking and Canoeing Club","source":"GPS"}},"geometry":{"type":"Point","coordinates":[-82.0883344,36.2201619]}},{"type":"Feature","properties":{"name":"Laurel Fork Shelter","osm_type":"node","osm_id":419230229,"amenity":"shelter","capacity":"6","operator":"Tennessee Eastman Hiking and Canoeing Club","tags":{"amenity":"shelter","attribution":"Appalachian Trail Club","capacity":"6","description":"Water available 150 ft from shelter--gb, 75","fee":"no","name":"Laurel Fork Shelter","operator":"Tennessee Eastman Hiking and Canoeing Club","source":"GPS"}},"geometry":{"type":"Point","coordinates":[-82.1362014,36.2785941]}},{"type":"Feature","properties":{"name":"Vandeventer Shelter","osm_type":"node","osm_id":419230233,"amenity":"shelter","capacity":"6","operator":"Tennessee Eastman Hiking and Canoeing Club","tags":{"amenity":"shelter","attribution":"Appalachian Trail Club","capacity":"6","description":"Water is 0.5 mi W on side trail; behind shelter cliffs allow view across Watauga","fee":"no","name":"Vandeventer Shelter","operator":"Tennessee Eastman Hiking and Canoeing Club","source":"GPS"}},"geometry":{"type":"Point","coordinates":[-82.0587742,36.3669796]}},{"type":"Feature","properties":{"name":"Iron Mountain Shelter","osm_type":"node","osm_id":419230237,"amenity":"shelter","capacity":"6","operator":"Tennessee Eastman Hiking and Canoeing Club","tags":{"amenity":"shelter","attribution":"Appalachian Trail Club","capacity":"6","description":"No water at shelter; water located 0.2 mi S of shelter on AT--gb, 62","fee":"no","name":"Iron Mountain Shelter","operator":"Tennessee Eastman Hiking and Canoeing Club","source":"GPS"}},"geometry":{"type":"Point","coordinates":[-81.9908557,36.4355664]}},{"type":"Feature","properties":{"name":"Double Springs Shelter","osm_type":"node","osm_id":419230247,"amenity":"shelter","capacity":"6","operator":"Tennessee Eastman Hiking and Canoeing Club","tags":{"amenity":"shelter","attribution":"Appalachian Trail Club","capacity":"6","description":"Shelter on W side of AT in draw; spring is 100 yds down draw--gb, 55","fee":"no","name":"Double Springs Shelter","operator":"Tennessee Eastman Hiking and Canoeing Club","source":"GPS"}},"geometry":{"type":"Point","coordinates":[-81.9860258,36.5090073]}},{"type":"Feature","properties":{"name":"Saunders Shelter","osm_type":"node","osm_id":419230253,"amenity":"shelter","capacity":"10","operator":"Mt. Rogers Appalachian Trail Club","tags":{"amenity":"shelter","attribution":"Appalachian Trail Club","capacity":"10","description":"Blue blazed trail leads 150 yds beyond shelter to spring--gb, 137","fee":"no","name":"Saunders Shelter","operator":"Mt. Rogers Appalachian Trail Club","source":"GPS"}},"geometry":{"type":"Point","coordinates":[-81.7129562,36.6377316]}},{"type":"Feature","properties":{"name":"Lost Mountain Shelter","osm_type":"node","osm_id":419230257,"amenity":"shelter","capacity":"6","operator":"Mt. Rogers Appalachian Trail Club","tags":{"amenity":"shelter","attribution":"Appalachian Trail Club","capacity":"6","description":"AT reaches Lost Mountain Shelter; spring 150 yds from shelter; privy nearby--gb,","fee":"no","name":"Lost Mountain Shelter","operator":"Mt. Rogers Appalachian Trail Club","source":"GPS"}},"geometry":{"type":"Point","coordinates":[-81.6560865,36.644087]}},{"type":"Feature","properties":{"name":"McQueens Knob Shelter","osm_type":"node","osm_id":419230272,"amenity":"shelter","capacity":"4","operator":"Tennessee Eastman Hiking and Canoeing Club","tags":{"amenity":"shelter","attribution":"Appalachian Trail Club","capacity":"4","description":"AT passes small log shelter, built in 1934; no water; emergency shelter for 3 or","fee":"no","name":"McQueens Knob Shelter","operator":"Tennessee Eastman Hiking and Canoeing Club","source":"GPS"}},"geometry":{"type":"Point","coordinates":[-81.9201815,36.572181]}},{"type":"Feature","properties":{"name":"Plum Orchard Gap Shelter","osm_type":"node","osm_id":419230303,"amenity":"shelter","shelter_type":"lean_to","capacity":"14","operator":"Georgia Appalachian Trail Club","tags":{"amenity":"shelter","attribution":"Appalachian Trail Club","capacity":"14","description":"Shelter has water; a second spring is located 0.1 mi from AT on side trail to W","fee":"no","name":"Plum Orchard Gap Shelter","operator":"Georgia Appalachian Trail Club","shelter_type":"lean_to","source":"GPS"}},"geometry":{"type":"Point","coordinates":[-83.5881573,34.9461125]}},{"type":"Feature","properties":{"name":"Muskrat Creek Shelter","osm_type":"node","osm_id":419230307,"amenity":"shelter","capacity":"7","operator":"Nantahala Hiking Club","tags":{"amenity":"shelter","attribution":"Appalachian Trail Club","bin":"no","capacity":"7","description":"Stream adjacent to shelter; a latrine is uphill to left of shelter--gb, 112","fee":"no","name":"Muskrat Creek Shelter","operator":"Nantahala Hiking Club","source":"GPS"}},"geometry":{"type":"Point","coordinates":[-83.5814845,35.0206085]}},{"type":"Feature","properties":{"name":"Tray Mountain Shelter","osm_type":"node","osm_id":419230311,"amenity":"shelter","shelter_type":"lean_to","capacity":"7","operator":"Georgia Appalachian Trail Club","tags":{"amenity":"shelter","attribution":"Appalachian Trail Club","capacity":"7","description":"Spring is approx 800 ft downhill to right of shelter--gb, 134","fee":"no","name":"Tray Mountain Shelter","operator":"Georgia Appalachian Trail Club","shelter_type":"lean_to","source":"GPS"}},"geometry":{"type":"Point","coordinates":[-83.6767431,34.8040299]}},{"type":"Feature","properties":{"name":"Deep Gap Shelter","osm_type":"node","osm_id":419230314,"amenity":"shelter","shelter_type":"lean_to","capacity":"12","operator":"Georgia Appalachian Trail Club","tags":{"amenity":"shelter","attribution":"Appalachian Trail Club","capacity":"12","description":"Spring is on side trail betweeen AT and shelter--gb, 134","fee":"no","name":"Deep Gap Shelter","operator":"Georgia Appalachian Trail Club","shelter_type":"lean_to","source":"GPS"}},"geometry":{"type":"Point","coordinates":[-83.6460255,34.8824182]}},{"type":"Feature","properties":{"name":"Low Gap Shelter","osm_type":"node","osm_id":419230318,"amenity":"shelter","shelter_type":"lean_to","capacity":"6","operator":"Georgia Appalachian Trail Club","tags":{"amenity":"shelter","attribution":"Appalachian Trail Club","capacity":"6","description":"Spring is nearby--gb, 138, 142","fee":"no","name":"Low Gap Shelter","operator":"Georgia Appalachian Trail Club","shelter_type":"lean_to","source":"GPS"}},"geometry":{"type":"Point","coordinates":[-83.8244888,34.7762691]}},{"type":"Feature","properties":{"name":"Blue Mountain Shelter","osm_type":"node","osm_id":419230322,"amenity":"shelter","shelter_type":"lean_to","capacity":"7","operator":"Georgia Appalachian Trail Club","tags":{"amenity":"shelter","attribution":"Appalachian Trail Club","capacity":"7","description":"Water supply for shelter is about 0.1 mi S of shelter on W side of AT--2000 Comp","fee":"no","name":"Blue Mountain Shelter","operator":"Georgia Appalachian Trail Club","shelter_type":"lean_to","source":"GPS"}},"geometry":{"type":"Point","coordinates":[-83.7667175,34.8172638]}},{"type":"Feature","properties":{"name":"Woods Hole Shelter","osm_type":"node","osm_id":419230326,"amenity":"shelter","shelter_type":"lean_to","capacity":"7","operator":"Georgia Appalachian Trail Club","tags":{"amenity":"shelter","attribution":"Appalachian Trail Club","building":"yes","capacity":"7","description":"No water at shelter; spring (may be dry) is midway between AT and shelter; relia","fee":"no","name":"Woods Hole Shelter","operator":"Georgia Appalachian Trail Club","shelter_type":"lean_to","source":"GPS"}},"geometry":{"type":"Point","coordinates":[-83.9549667,34.7372422]}},{"type":"Feature","properties":{"name":"Carter Gap Shelter","osm_type":"node","osm_id":419230338,"amenity":"shelter","shelter_type":"lean_to","capacity":"8","operator":"Nantahala Hiking Club","tags":{"amenity":"shelter","attribution":"Appalachian Trail Club","bin":"no","capacity":"8","description":"Blue blazes lead E to new shelter; water from spring on side trail to W, behind","fee":"no","name":"Carter Gap Shelter","operator":"Nantahala Hiking Club","shelter_type":"lean_to","source":"GPS"}},"geometry":{"type":"Point","coordinates":[-83.4941168,34.9989723]}},{"type":"Feature","properties":{"name":"Brown Mountain Creek Shelter","osm_type":"node","osm_id":419230341,"amenity":"shelter","capacity":"6","operator":"Natural Bridge Appalachian Trail Club","tags":{"amenity":"shelter","attribution":"Appalachian Trail Club","capacity":"6","description":"Two unprotected springs are near shelter--gb, 99","fee":"no","name":"Brown Mountain Creek Shelter","operator":"Natural Bridge Appalachian Trail Club","source":"GPS"}},"geometry":{"type":"Point","coordinates":[-79.2681678,37.709463]}},{"type":"Feature","properties":{"name":"Cable Gap Shelter","osm_type":"node","osm_id":419230354,"amenity":"shelter","shelter_type":"lean_to","capacity":"6","operator":"Smoky Mountain Hiking Club","tags":{"amenity":"shelter","attribution":"Appalachian Trail Club","capacity":"6","description":"Adjacent spring. A privy is close to shelter--gb, 80.","fee":"no","name":"Cable Gap Shelter","operator":"Smoky Mountain Hiking Club","shelter_type":"lean_to","source":"GPS"}},"geometry":{"type":"Point","coordinates":[-83.7734738,35.4152936]}},{"type":"Feature","properties":{"name":"Seeley-Woodworth Shelter","osm_type":"node","osm_id":419230369,"amenity":"shelter","capacity":"0","operator":"Natural Bridge Appalachian Trail Club","tags":{"amenity":"shelter","attribution":"Appalachian Trail Club","capacity":"0","description":"Water from unprotected spring 0.1 mi beyond shelter on blue-blazed trail--gb, 71","fee":"no","name":"Seeley-Woodworth Shelter","operator":"Natural Bridge Appalachian Trail Club","source":"GPS"}},"geometry":{"type":"Point","coordinates":[-79.1548682,37.8189291]}},{"type":"Feature","properties":{"name":"Cow Camp Gap Shelter","osm_type":"node","osm_id":419230373,"amenity":"shelter","tourism":"wilderness_hut","shelter_type":"lean_to","capacity":"8","operator":"Natural Bridge Appalachian Trail Club","tags":{"amenity":"shelter","attribution":"Appalachian Trail Club","capacity":"8","description":"Has two unprotected springs--gb, 89; Campsites nearby--gb, 84","fee":"no","name":"Cow Camp Gap Shelter","operator":"Natural Bridge Appalachian Trail Club","shelter_type":"lean_to","source":"survey;gps","tourism":"wilderness_hut"}},"geometry":{"type":"Point","coordinates":[-79.2126406,37.7450376]}},{"type":"Feature","properties":{"name":"Helveys Mill Shelter","osm_type":"node","osm_id":419230378,"amenity":"shelter","shelter_type":"lean_to","capacity":"6","operator":"Outdoor Club of Virginia Tech","tags":{"amenity":"shelter","attribution":"Appalachian Trail Club","capacity":"6","description":"Water nearby on blue blaze trail--gb, 60, 62.","fee":"no","name":"Helveys Mill Shelter","operator":"Outdoor Club of Virginia Tech","shelter_type":"lean_to","source":"GPS"}},"geometry":{"type":"Point","coordinates":[-81.1029992,37.1308811]}},{"type":"Feature","properties":{"name":"Hawk Mountain Shelter","osm_type":"node","osm_id":419230394,"amenity":"shelter","shelter_type":"lean_to","capacity":"12","operator":"Georgia Appalachian Trail Club","tags":{"amenity":"shelter","attribution":"Appalachian Trail Club","capacity":"12","description":"Water can be found about 400 yds behind shelter--gb, 169","fee":"no","name":"Hawk Mountain Shelter","operator":"Georgia Appalachian Trail Club","shelter_type":"lean_to","source":"GPS"}},"geometry":{"type":"Point","coordinates":[-84.1362949,34.6659853]}},{"type":"Feature","properties":{"name":"Gooch Mountain Shelter","osm_type":"node","osm_id":419230403,"amenity":"shelter","shelter_type":"lean_to","capacity":"12","operator":"Georgia Appalachian Trail Club","tags":{"amenity":"shelter","attribution":"Appalachian Trail Club","capacity":"12","description":"A spring is approx 0.2 mi S of shelter, directly on the AT--gb, 157","fee":"no","name":"Gooch Mountain Shelter","operator":"Georgia Appalachian Trail Club","shelter_type":"lean_to","source":"GPS"}},"geometry":{"type":"Point","coordinates":[-84.0500029,34.6556801]}},{"type":"Feature","properties":{"name":"Wilson Creek Shelter","osm_type":"node","osm_id":419230455,"amenity":"shelter","shelter_type":"lean_to","capacity":"6","operator":"Roanoke Appalachian Trail Club","tags":{"amenity":"shelter","attribution":"Appalachian Trail Club","bin":"no","capacity":"6","description":"Water from stream 200 yds in front of shelter--gb, 209; camping below shelter--g","fee":"no","name":"Wilson Creek Shelter","operator":"Roanoke Appalachian Trail Club","shelter_type":"lean_to","source":"GPS"}},"geometry":{"type":"Point","coordinates":[-79.7855873,37.419409]}},{"type":"Feature","properties":{"name":"Bryant Ridge Shelter","osm_type":"node","osm_id":419230460,"amenity":"shelter","capacity":"20","operator":"Natural Bridge Appalachian Trail Club","tags":{"amenity":"shelter","attribution":"Appalachian Trail Club","capacity":"20","description":"Ample water--gb, 172","fee":"no","name":"Bryant Ridge Shelter","operator":"Natural Bridge Appalachian Trail Club","source":"GPS"}},"geometry":{"type":"Point","coordinates":[-79.5853044,37.5300478]}},{"type":"Feature","properties":{"name":"Cornelius Creek Shelter","osm_type":"node","osm_id":419230471,"amenity":"shelter","shelter_type":"lean_to","capacity":"6","operator":"Natural Bridge Appalachian Trail Club","tags":{"amenity":"shelter","attribution":"Appalachian Trail Club","capacity":"6","description":"Water from unprotected springs; campsites nearby--gb, 172","fee":"no","name":"Cornelius Creek Shelter","operator":"Natural Bridge Appalachian Trail Club","shelter_type":"lean_to","source":"GPS"}},"geometry":{"type":"Point","coordinates":[-79.5469492,37.4939209]}},{"type":"Feature","properties":{"name":"Stover Creek Shelter","osm_type":"node","osm_id":419230475,"amenity":"shelter","shelter_type":"lean_to","capacity":"6","operator":"Georgia Appalachian Trail Club","tags":{"amenity":"shelter","attribution":"Appalachian Trail Club","capacity":"6","description":"Water can be acquired from Stover Creek--JK","fee":"no","name":"Stover Creek Shelter","operator":"Georgia Appalachian Trail Club","shelter_type":"lean_to","source":"GPS"}},"geometry":{"type":"Point","coordinates":[-84.1971932,34.6502859]}},{"type":"Feature","properties":{"name":"The Ranger Shelter","osm_type":"node","osm_id":419230481,"amenity":"shelter","capacity":"8","operator":"Maine Appalachian Trail Club","tags":{"amenity":"shelter","attribution":"Appalachian Trail Club","capacity":"8","description":"Designated shelters for thru-hikers only!","fee":"no","name":"The Ranger Shelter","operator":"Maine Appalachian Trail Club","source":"Approximate Location"}},"geometry":{"type":"Point","coordinates":[-68.9977764,45.8866992]}},{"type":"Feature","properties":{"name":"Frye Notch Lean-to","osm_type":"node","osm_id":694131277,"amenity":"shelter","capacity":"6","operator":"Maine Appalachian Trail Club","tags":{"amenity":"shelter","attribution":"Appalachian Trail Club","capacity":"6","description":"Frye Notch Lean-to is next to Frye Brook; water from stream or small spring--gm7","fee":"no","name":"Frye Notch Lean-to","operator":"Maine Appalachian Trail Club","source":"GPS"}},"geometry":{"type":"Point","coordinates":[-70.9012739,44.6272066]}},{"type":"Feature","properties":{"name":"Cloud Pond Lean-to","osm_type":"node","osm_id":1680781544,"amenity":"shelter","shelter_type":"lean_to","capacity":"6","operator":"Maine Appalachian Trail Club","tags":{"amenity":"shelter","attribution":"Appalachian Trail Club","capacity":"6","description":"Located 0.3 mi. from AT on a side trail. Water from pond or spring--GM3","fee":"no","name":"Cloud Pond Lean-to","operator":"Maine Appalachian Trail Club","shelter_type":"lean_to","source":"GPS"}},"geometry":{"type":"Point","coordinates":[-69.3542084,45.4186312]}},{"type":"Feature","properties":{"name":"Shelter","osm_type":"node","osm_id":1960851264,"amenity":"shelter","tags":{"amenity":"shelter"}},"geometry":{"type":"Point","coordinates":[-74.1135866,41.2683539]}},{"type":"Feature","properties":{"name":"Horns Pond Lean-to","osm_type":"node","osm_id":4317835967,"amenity":"shelter","shelter_type":"lean_to","capacity":"8","tags":{"amenity":"shelter","capacity":"8","fee":"no","name":"Horns Pond Lean-to","shelter":"yes","shelter_type":"lean_to"}},"geometry":{"type":"Point","coordinates":[-70.3301055,45.1441538]}},{"type":"Feature","properties":{"name":"Deep Gap Shelter","osm_type":"node","osm_id":4940480192,"amenity":"shelter","tags":{"amenity":"shelter","name":"Deep Gap Shelter"}},"geometry":{"type":"Point","coordinates":[-81.7911708,36.6318162]}},{"type":"Feature","properties":{"name":"Carlo Col Shelter","osm_type":"node","osm_id":4959841755,"amenity":"shelter","capacity":"0","operator":"Appalachian Mountain Club","tags":{"amenity":"shelter","attribution":"Appalachian Mountain Club","capacity":"0","fee":"no","name":"Carlo Col Shelter","operator":"Appalachian Mountain Club","source":"GPS"}},"geometry":{"type":"Point","coordinates":[-71.0161033,44.4886632]}},{"type":"Feature","properties":{"name":"Lost Pond Shelter","osm_type":"node","osm_id":5913795074,"amenity":"shelter","tags":{"amenity":"shelter","name":"Lost Pond Shelter"}},"geometry":{"type":"Point","coordinates":[-72.9532258,43.3457288]}},{"type":"Feature","properties":{"name":"Churchill Scott Shelter","osm_type":"node","osm_id":5913833150,"amenity":"shelter","tags":{"amenity":"shelter","name":"Churchill Scott Shelter"}},"geometry":{"type":"Point","coordinates":[-72.8533805,43.6449215]}},{"type":"Feature","properties":{"name":"Brown Fork Gap Shelter","osm_type":"node","osm_id":7412392449,"amenity":"shelter","shelter_type":"lean_to","capacity":"6","operator":"Smoky Mountain Hiking Club","tags":{"amenity":"shelter","attribution":"Appalachian Trail Club","capacity":"6","description":"Privy is located below shelter--gb, 84; spring is downhill to right of shelter","fee":"no","name":"Brown Fork Gap Shelter","operator":"Smoky Mountain Hiking Club","shelter_type":"lean_to","source":"GPS"}},"geometry":{"type":"Point","coordinates":[-83.7339199,35.3743019]}},{"type":"Feature","properties":{"name":"Moose Mountain Shelter","osm_type":"node","osm_id":7818421775,"amenity":"shelter","shelter_type":"lean_to","capacity":"8","operator":"Dartmouth Outing Club","tags":{"amenity":"shelter","capacity":"8","fee":"no","name":"Moose Mountain Shelter","operator":"Dartmouth Outing Club","shelter_type":"lean_to"}},"geometry":{"type":"Point","coordinates":[-72.1495492,43.7272556]}},{"type":"Feature","properties":{"name":"Pine Swamp Brook Lean-to","osm_type":"node","osm_id":8272044955,"amenity":"shelter","shelter_type":"lean_to","capacity":"6","operator":"AMC - Connecticut Chapter","tags":{"amenity":"shelter","attribution":"Appalachian Trail Club","capacity":"6","description":"Water nearby, privy, several good tent sites--gb, 141 -bear box","fee":"no","name":"Pine Swamp Brook Lean-to","operator":"AMC - Connecticut Chapter","shelter_type":"lean_to"}},"geometry":{"type":"Point","coordinates":[-73.3916585,41.8816866]}},{"type":"Feature","properties":{"name":"Long Pond Stream Lean-to","osm_type":"node","osm_id":8469965224,"amenity":"shelter","shelter_type":"lean_to","capacity":"8","operator":"Maine Appalachian Trail Club","tags":{"amenity":"shelter","attribution":"Appalachian Trail Club","capacity":"8","description":"Water from small tributary of Long Pond Stream. Scenic Slugundy Gorge and Falls","fee":"no","name":"Long Pond Stream Lean-to","operator":"Maine Appalachian Trail Club","shelter_type":"lean_to","source":"GPS"}},"geometry":{"type":"Point","coordinates":[-69.4102751,45.4211783]}},{"type":"Feature","properties":{"name":"Sabbath Day Pond Lean-to","osm_type":"node","osm_id":8481104641,"amenity":"shelter","capacity":"8","operator":"Maine Appalachian Trail Club","tags":{"amenity":"shelter","attribution":"Appalachian Trail Club","capacity":"8","comment":"Water from pond;excellent swimming at sand beach on Long Pond, 0.3 mi S via AT-","fee":"no","name":"Sabbath Day Pond Lean-to","operator":"Maine Appalachian Trail Club","source":"GPS"}},"geometry":{"type":"Point","coordinates":[-70.6621769,44.8409734]}},{"type":"Feature","properties":{"name":"Hall Mountain Lean-to","osm_type":"node","osm_id":8484121476,"amenity":"shelter","capacity":"6","operator":"Maine Appalachian Trail Club","tags":{"amenity":"shelter","attribution":"Appalachian Trail Club","capacity":"6","description":"Water from spring or small spring--gm7; a spring is south of the shelter--2000 C","fee":"no","name":"Hall Mountain Lean-to","operator":"Maine Appalachian Trail Club","source":"GPS"}},"geometry":{"type":"Point","coordinates":[-70.8246356,44.7009072]}},{"type":"Feature","properties":{"name":"Shelter","osm_type":"node","osm_id":8621929553,"amenity":"shelter","shelter_type":"picnic_shelter","tags":{"amenity":"shelter","shelter_type":"picnic_shelter"}},"geometry":{"type":"Point","coordinates":[-77.8863869,39.0907443]}},{"type":"Feature","properties":{"name":"Mountaineer Shelter","osm_type":"node","osm_id":8770287863,"amenity":"shelter","tags":{"amenity":"shelter","name":"Mountaineer Shelter"}},"geometry":{"type":"Point","coordinates":[-81.9856051,36.2202189]}},{"type":"Feature","properties":{"name":"Hermitage Cabin PATC","osm_type":"node","osm_id":8770618089,"tourism":"wilderness_hut","operator":"Potomac Appalachian Trail Club","tags":{"charge":"50.00","fee":"yes","fireplace":"yes","name":"Hermitage Cabin PATC","operator":"Potomac Appalachian Trail Club","tourism":"wilderness_hut"}},"geometry":{"type":"Point","coordinates":[-77.4808937,39.8124764]}},{"type":"Feature","properties":{"name":"Nahmakanta Stream Lean-to","osm_type":"node","osm_id":8929757349,"amenity":"shelter","shelter_type":"lean_to","tags":{"amenity":"shelter","name":"Nahmakanta Stream Lean-to","shelter_type":"lean_to","tents":"yes","toilets":"yes"}},"geometry":{"type":"Point","coordinates":[-69.0546779,45.7346059]}},{"type":"Feature","properties":{"name":"Story Spring Shelter","osm_type":"node","osm_id":8951862141,"amenity":"shelter","operator":"Green Mountain Club","tags":{"amenity":"shelter","name":"Story Spring Shelter","operator":"Green Mountain Club","source":"USGS Topo map"}},"geometry":{"type":"Point","coordinates":[-73.0120513,43.0505768]}},{"type":"Feature","properties":{"name":"Hurricane Shelter","osm_type":"node","osm_id":9045411432,"amenity":"shelter","tags":{"amenity":"shelter","name":"Hurricane Shelter"}},"geometry":{"type":"Point","coordinates":[-81.5096487,36.7154251]}},{"type":"Feature","properties":{"name":"Spring Mountain Shelter","osm_type":"node","osm_id":9109534036,"amenity":"shelter","shelter_type":"lean_to","capacity":"5","operator":"Carolina Mountain Club","tags":{"amenity":"shelter","attribution":"Appalachian Trail Club","building":"yes","capacity":"5","description":"Alt.3300'; spring is 75 yds down NC side, opposite shelter--gb, 172","fee":"no","name":"Spring Mountain Shelter","operator":"Carolina Mountain Club","shelter_type":"lean_to","source":"gps"}},"geometry":{"type":"Point","coordinates":[-82.7901239,35.9518292]}},{"type":"Feature","properties":{"name":"Pickle Branch Shelter","osm_type":"node","osm_id":10844938282,"amenity":"shelter","tags":{"amenity":"shelter","name":"Pickle Branch Shelter"}},"geometry":{"type":"Point","coordinates":[-80.1846093,37.380201]}},{"type":"Feature","properties":{"name":"Seth Warner Shelter","osm_type":"node","osm_id":11033507953,"amenity":"shelter","shelter_type":"lean_to","operator":"Green Mountain Club","tags":{"amenity":"shelter","attribution":"Appalachian Trail Club","fee":"no","name":"Seth Warner Shelter","operator":"Green Mountain Club","shelter_type":"lean_to","source":"GPS"}},"geometry":{"type":"Point","coordinates":[-73.11836,42.79804]}},{"type":"Feature","properties":{"name":"secret shelter","osm_type":"node","osm_id":13028477402,"amenity":"shelter","tags":{"amenity":"shelter","name":"secret shelter"}},"geometry":{"type":"Point","coordinates":[-74.5851035,41.3092453]}},{"type":"Feature","properties":{"name":"Birches","osm_type":"node","osm_id":13144925201,"amenity":"shelter","tags":{"amenity":"shelter","name":"Birches"}},"geometry":{"type":"Point","coordinates":[-68.9933709,45.8856465]}},{"type":"Feature","properties":{"name":"Birches Shelter","osm_type":"node","osm_id":13155791802,"amenity":"shelter","tags":{"amenity":"shelter","name":"Birches Shelter"}},"geometry":{"type":"Point","coordinates":[-68.9935998,45.8855678]}}],"properties":{"name":"Appalachian Trail shelters (OSM-derived)","source":"OpenStreetMap contributors","license":"ODbL","osm_relation":156553,"buffer_meters":650,"fetched_at":"2026-01-30T21:52:51.013Z"}}